[{"OBJECT_NAME":"JILIN-1 GAOFEN 03D47","OBJECT_ID":"2022-167L","EPOCH":"2026-03-09T22:56:46.924224","MEAN_MOTION":15.31686941,"ECCENTRICITY":0.00089304,"INCLINATION":97.6835,"RA_OF_ASC_NODE":234.6581,"ARG_OF_PERICENTER":110.4031,"MEAN_ANOMALY":249.8169,"EPHEMERIS_TYPE":0,"CLASSIFICATION_TYPE":"U","NORAD_CAT_ID":54692,"ELEMENT_SET_NO":999,"REV_AT_EPOCH":18014,"BSTAR":0.00047294748,"MEAN_MOTION_DOT":0.00014417,"MEAN_MOTION_DDOT":0},{"OBJECT_NAME":"STARLINK-32163","OBJECT_ID":"2024-131H","EPOCH":"2026-03-09T06:11:52.383552","MEAN_MOTION":15.30181151,"ECCENTRICITY":0.0001361,"INCLINATION":53.1598,"RA_OF_ASC_NODE":54.3553,"ARG_OF_PERICENTER":94.2219,"MEAN_ANOMALY":265.8937,"EPHEMERIS_TYPE":0,"CLASSIFICATION_TYPE":"U","NORAD_CAT_ID":60262,"ELEMENT_SET_NO":999,"REV_AT_EPOCH":9165,"BSTAR":0.00022064839,"MEAN_MOTION_DOT":6.177e-5,"MEAN_MOTION_DDOT":0}]
